NORAD_CAT_ID,OBJECT_NAME,OBJECT_TYPE,EPOCH,MEAN_MOTION,ECCENTRICITY,INCLINATION,RA_OF_ASC_NODE,ARG_OF_PERICENTER,MEAN_ANOMALY,BSTAR,MEAN_MOTION_DOT,MEAN_MOTION_DDOT,TLE_LINE0,TLE_LINE1,TLE_LINE2,SEMIMAJOR_AXIS,PERIOD,APOGEE,PERIGEE,DECAYED
51890.0,STARLINK-3519,PAYLOAD,2024-03-25 21:06:23,15.09647522,0.0001124,53.218,321.4217,67.5558,292.5553,-0.00016158,-2.918e-05,0.0,0 STARLINK-3519,1 51890U 22022AQ  24085.87943443 -.00002918  00000-0 -16158-3 0  9998,2 51890  53.2180 321.4217 0001124  67.5558 292.5553 15.09647522115513,6915.413,95.387,538.056,536.501,0.0
51890.0,STARLINK-3519,PAYLOAD,2024-03-25 22:41:43,15.09648647,0.0001125,53.2183,321.1261,83.191,276.9211,-0.00015071,-2.742e-05,0.0,0 STARLINK-3519,1 51890U 22022AQ  24085.94563763 -.00002742  00000-0 -15071-3 0  9997,2 51890  53.2183 321.1261 0001125  83.1910 276.9211 15.09648647115526,6915.41,95.386,538.053,536.497,0.0
51890.0,STARLINK-3519,PAYLOAD,2024-03-26 08:13:43,15.09649153,0.0001116,53.2183,319.3413,82.5278,277.5841,-0.00013149,-2.429e-05,0.0,0 STARLINK-3519,1 51890U 22022AQ  24086.34286279 -.00002429  00000-0 -13149-3 0  9992,2 51890  53.2183 319.3413 0001116  82.5278 277.5841 15.09649153115589,6915.408,95.386,538.045,536.501,0.0
51890.0,STARLINK-3519,PAYLOAD,2024-03-26 22:31:44,15.09646963,0.000109,53.2181,316.6657,80.6775,279.434,-0.00014816,-2.7e-05,0.0,0 STARLINK-3519,1 51890U 22022AQ  24086.93870590 -.00002700  00000-0 -14816-3 0  9996,2 51890  53.2181 316.6657 0001090  80.6775 279.4340 15.09646963115670,6915.415,95.387,538.034,536.526,0.0
51890.0,STARLINK-3519,PAYLOAD,2024-03-27 08:03:43,15.09655643,0.0001366,53.2199,314.8804,80.2901,279.8246,-6.6289e-05,-1.369e-05,0.0,0 STARLINK-3519,1 51890U 22022AQ  24087.33592491 -.00001369  00000-0 -66289-4 0  9994,2 51890  53.2199 314.8804 0001366  80.2901 279.8246 15.09655643115737,6915.388,95.386,538.198,536.309,0.0
51890.0,STARLINK-3519,PAYLOAD,2024-03-27 22:21:44,15.0964823,0.0001381,53.2202,312.2029,78.1799,281.9349,0.00013628,1.928e-05,0.0,0 STARLINK-3519,1 51890U 22022AQ  24087.93176364  .00001928  00000-0  13628-3 0  9994,2 51890  53.2202 312.2029 0001381  78.1799 281.9349 15.09648230115823,6915.411,95.386,538.231,536.321,0.0
51890.0,STARLINK-3519,PAYLOAD,2024-03-28 14:15:05,15.09647323,0.0001245,53.2182,309.2276,83.2748,276.8386,0.00011402,1.566e-05,0.0,0 STARLINK-3519,1 51890U 22022AQ  24088.59381035  .00001566  00000-0  11402-3 0  9996,2 51890  53.2182 309.2276 0001245  83.2748 276.8386 15.09647323115927,6915.414,95.387,538.14,536.418,0.0
51890.0,STARLINK-3519,PAYLOAD,2024-03-28 15:50:25,15.09647894,0.0001333,53.2194,308.9303,84.9492,275.1653,0.00011328,1.554e-05,0.0,0 STARLINK-3519,1 51890U 22022AQ  24088.66001483  .00001554  00000-0  11328-3 0  9994,2 51890  53.2194 308.9303 0001333  84.9492 275.1653 15.09647894115932,6915.412,95.386,538.199,536.355,0.0
51890.0,STARLINK-3519,PAYLOAD,2024-03-28 22:11:45,15.09652256,0.0001324,53.2188,307.7398,82.376,277.7383,0.00012207,1.697e-05,0.0,0 STARLINK-3519,1 51890U 22022AQ  24088.92482955  .00001697  00000-0  12207-3 0  9995,2 51890  53.2188 307.7398 0001324  82.3760 277.7383 15.09652256115976,6915.399,95.386,538.179,536.348,0.0
51890.0,STARLINK-3519,PAYLOAD,2024-03-29 14:05:05,15.09653421,0.0001456,53.2192,304.7647,87.1941,272.9218,0.00011209,1.534e-05,0.0,0 STARLINK-3519,1 51890U 22022AQ  24089.58687162  .00001534  00000-0  11209-3 0  9996,2 51890  53.2192 304.7647 0001456  87.1941 272.9218 15.09653421116076,6915.395,95.386,538.267,536.253,0.0
51890.0,STARLINK-3519,PAYLOAD,2024-03-29 20:26:25,15.09660362,0.0001275,53.2191,303.5747,86.5683,273.5455,7.7663e-05,9.74e-06,0.0,0 STARLINK-3519,1 51890U 22022AQ  24089.85168390  .00000974  00000-0  77663-4 0  9997,2 51890  53.2191 303.5747 0001275  86.5683 273.5455 15.09660362116115,6915.374,95.386,538.121,536.357,0.0
51890.0,STARLINK-3519,PAYLOAD,2024-03-30 07:33:46,15.09657315,0.0001234,53.2179,301.4914,87.6359,272.4775,-5.2256e-05,-1.141e-05,0.0,0 STARLINK-3519,1 51890U 22022AQ  24090.31511820 -.00001141  00000-0 -52256-4 0  9990,2 51890  53.2179 301.4914 0001234  87.6359 272.4775 15.09657315116185,6915.383,95.386,538.102,536.395,0.0
51890.0,STARLINK-3519,PAYLOAD,2024-03-30 20:16:25,15.09662881,0.0001363,53.2165,299.1102,88.9436,271.1713,4.6835e-05,4.72e-06,0.0,0 STARLINK-3519,1 51890U 22022AQ  24090.84474401  .00000472  00000-0  46835-4 0  9991,2 51890  53.2165 299.1102 0001363  88.9436 271.1713 15.09662881116266,6915.366,95.386,538.174,536.289,0.0
51890.0,STARLINK-3519,PAYLOAD,2024-03-31 07:23:46,15.09659482,0.0001144,53.2161,297.0279,78.8593,281.2528,3.2717e-05,2.42e-06,0.0,0 STARLINK-3519,1 51890U 22022AQ  24091.30817415  .00000242  00000-0  32717-4 0  9998,2 51890  53.2161 297.0279 0001144  78.8593 281.2528 15.09659482116330,6915.377,95.386,538.033,536.451,0.0
51890.0,STARLINK-3519,PAYLOAD,2024-03-31 20:06:26,15.09662789,0.0001206,53.217,294.6464,83.1077,277.0053,-7.985e-05,-1.59e-05,0.0,0 STARLINK-3519,1 51890U 22022AQ  24091.83780863 -.00001590  00000-0 -79850-4 0  9990,2 51890  53.2170 294.6464 0001206  83.1077 277.0053 15.09662789116413,6915.367,95.386,538.066,536.398,0.0
51890.0,STARLINK-3519,PAYLOAD,2024-04-01 23:07:07,15.09655742,0.0001252,53.218,289.5872,87.7582,272.3554,2.361e-05,9.4e-07,0.0,0 STARLINK-3519,1 51890U 22022AQ  24092.96327915  .00000094  00000-0  23610-4 0  9999,2 51890  53.2180 289.5872 0001252  87.7582 272.3554 15.09655742116585,6915.388,95.386,538.119,536.387,0.0
51890.0,STARLINK-3519,PAYLOAD,2024-04-02 19:46:28,15.09651524,0.0001211,53.2178,285.7176,84.9177,275.1954,-7.9736e-06,-4.2e-06,0.0,0 STARLINK-3519,1 51890U 22022AQ  24093.82393801 -.00000420  00000-0 -79736-5 0  9998,2 51890  53.2178 285.7176 0001211  84.9177 275.1954 15.09651524116715,6915.401,95.386,538.103,536.429,0.0
51890.0,STARLINK-3519,PAYLOAD,2024-04-03 05:18:28,15.09656759,0.0001231,53.2182,283.9328,85.1351,274.9782,2.7857e-05,1.63e-06,0.0,0 STARLINK-3519,1 51890U 22022AQ  24094.22115878  .00000163  00000-0  27857-4 0  9997,2 51890  53.2182 283.9328 0001231  85.1351 274.9782 15.09656759116775,6915.385,95.386,538.101,536.399,0.0
51890.0,STARLINK-3519,PAYLOAD,2024-04-03 13:15:08,15.0965315,0.0001233,53.2182,282.4459,86.9833,273.13,1.8898e-05,1.7e-07,0.0,0 STARLINK-3519,1 51890U 22022AQ  24094.55218223  .00000017  00000-0  18898-4 0  9994,2 51890  53.2182 282.4459 0001233  86.9833 273.1300 15.09653150116825,6915.396,95.386,538.114,536.408,0.0
51890.0,STARLINK-3519,PAYLOAD,2024-04-03 21:11:48,15.09655229,0.0001169,53.2179,280.9593,88.0463,272.0663,3.5535e-05,2.88e-06,0.0,0 STARLINK-3519,1 51890U 22022AQ  24094.88320124  .00000288  00000-0  35535-4 0  9991,2 51890  53.2179 280.9593 0001169  88.0463 272.0663 15.09655229116877,6915.39,95.386,538.063,536.446,0.0
51890.0,STARLINK-3519,PAYLOAD,2024-04-04 05:08:29,15.09649951,0.0001065,53.2172,279.471,95.0204,265.091,5.4794e-06,-2.01e-06,0.0,0 STARLINK-3519,1 51890U 22022AQ  24095.21422627 -.00000201  00000-0  54794-5 0  9995,2 51890  53.2172 279.4710 0001065  95.0204 265.0910 15.09649951116928,6915.406,95.386,538.007,536.534,0.0
51890.0,STARLINK-3519,PAYLOAD,2024-04-04 21:01:49,15.09656895,0.0001005,53.2168,276.495,98.8931,261.2175,2.5104e-05,1.19e-06,0.0,0 STARLINK-3519,1 51890U 22022AQ  24095.87626316  .00000119  00000-0  25104-4 0  9997,2 51890  53.2168 276.4950 0001005  98.8931 261.2175 15.09656895117026,6915.385,95.386,537.945,536.555,0.0
51890.0,STARLINK-3519,PAYLOAD,2024-04-05 11:19:49,15.09658815,9.88e-05,53.2166,273.8165,93.6591,266.4514,3.873e-05,3.4e-06,0.0,0 STARLINK-3519,1 51890U 22022AQ  24096.47209790  .00000340  00000-0  38730-4 0  9992,2 51890  53.2166 273.8165 0000988  93.6591 266.4514 15.09658815117115,6915.379,95.386,537.927,536.56,0.0
51890.0,STARLINK-3519,PAYLOAD,2024-04-05 20:51:49,15.09657343,0.0001006,53.2169,272.0307,91.47,268.6408,-2.2581e-06,-3.27e-06,0.0,0 STARLINK-3519,1 51890U 22022AQ  24096.86932549 -.00000327  00000-0 -22581-5 0  9995,2 51890  53.2169 272.0307 0001006  91.4700 268.6408 15.09657343117174,6915.383,95.386,537.944,536.553,0.0
51890.0,STARLINK-3519,PAYLOAD,2024-04-06 04:48:30,15.09654068,0.0001022,53.2173,270.5419,87.0762,273.0348,2.3914e-05,9.9e-07,0.0,0 STARLINK-3519,1 51890U 22022AQ  24097.20034735  .00000099  00000-0  23914-4 0  9998,2 51890  53.2173 270.5419 0001022  87.0762 273.0348 15.09654068117223,6915.393,95.386,537.965,536.551,0.0
51890.0,STARLINK-3519,PAYLOAD,2024-04-06 20:41:50,15.09660339,0.0001119,53.2178,267.5656,86.1654,273.9466,2.8919e-05,1.81e-06,0.0,0 STARLINK-3519,1 51890U 22022AQ  24097.86238433  .00000181  00000-0  28919-4 0  9993,2 51890  53.2178 267.5656 0001119  86.1654 273.9466 15.09660339117323,6915.374,95.386,538.013,536.465,0.0
51890.0,STARLINK-3519,PAYLOAD,2024-04-07 10:59:50,15.09654391,0.00011,53.2174,264.8871,86.3917,273.7201,-2.9443e-06,-3.38e-06,0.0,0 STARLINK-3519,1 51890U 22022AQ  24098.45822596 -.00000338  00000-0 -29443-5 0  9998,2 51890  53.2174 264.8871 0001100  86.3917 273.7201 15.09654391117418,6915.392,95.386,538.018,536.497,0.0
51890.0,STARLINK-3519,PAYLOAD,2024-04-07 17:21:10,15.09657035,0.0001117,53.2175,263.6976,85.4587,274.6534,1.4347e-05,-5.7e-07,0.0,0 STARLINK-3519,1 51890U 22022AQ  24098.72304015 -.00000057  00000-0  14347-4 0  9992,2 51890  53.2175 263.6976 0001117  85.4587 274.6534 15.09657035117454,6915.384,95.386,538.022,536.477,0.0
51890.0,STARLINK-3519,PAYLOAD,2024-04-08 10:49:51,15.09658608,0.0001233,53.2151,260.4253,79.8148,280.2984,3.1269e-06,-2.39e-06,0.0,0 STARLINK-3519,1 51890U 22022AQ  24099.45128488 -.00000239  00000-0  31269-5 0  9996,2 51890  53.2151 260.4253 0001233  79.8148 280.2984 15.09658608117561,6915.379,95.386,538.097,536.392,0.0
51890.0,STARLINK-3519,PAYLOAD,2024-04-08 17:11:11,15.09659429,0.0001222,53.2145,259.2346,80.9576,279.1555,1.3677e-05,-6.8e-07,0.0,0 STARLINK-3519,1 51890U 22022AQ  24099.71609985 -.00000068  00000-0  13677-4 0  9993,2 51890  53.2145 259.2346 0001222  80.9576 279.1555 15.09659429117607,6915.377,95.386,538.087,536.397,0.0
